CUBESAT XI-IV (CO-57)   
1 27848U 03031J   26187.00197818  .00000261  00000+0  13358-3 0  9995
2 27848  98.6770 195.0217 0010158 143.6881 216.4988 14.23631104194051
APRIZESAT 4             
1 35684U 09041D   26187.67722990  .00000676  00000+0  87258-4 0  9998
2 35684  98.1405 263.3858 0041916 257.9565 101.6949 14.83905921914253
APRIZESAT 3             
1 35686U 09041F   26187.69291374  .00001298  00000+0  11649-3 0  9990
2 35686  98.2083 341.8539 0061483   3.8106 356.3570 14.96292459919293
PROBA-2                 
1 36037U 09059B   26187.77269363  .00000187  00000+0  54159-4 0  9992
2 36037  98.2457  10.8544 0012439 215.7481 144.2885 14.54871067884370
APRIZESAT 5             
1 37792U 11044E   26187.73418369  .00000892  00000+0  11993-3 0  9997
2 37792  98.2450 121.3291 0050926 300.6841  58.9357 14.81117103801688
APRIZESAT 6             
1 37793U 11044F   26187.72479228  .00000812  00000+0  12153-3 0  9999
2 37793  98.2347  98.6222 0043727  25.1391  28.6385 14.76947912800030
PROBA-V                 
1 39159U 13021A   26187.86913666  .00000102  00000+0  62601-4 0  9994
2 39159  98.3598 165.5052 0005423  78.8945 281.2844 14.23602176683918
APRIZESAT 7             
1 39416U 13066A   26187.87681183  .00001165  00000+0  12026-3 0  9991
2 39416  97.7717 140.8148 0036677 144.0223 216.3476 14.91606290684166
APRIZESAT 8             
1 39425U 13066K   26187.84882411  .00000749  00000+0  87018-4 0  9996
2 39425  97.8227 135.0435 0044824 219.7671 140.0257 14.87687259682592
BUGSAT-1 (TITA)         
1 40014U 14033E   26187.84161116  .00005940  00000+0  31146-3 0  9997
2 40014  98.0426 281.5433 0029140 113.0175 247.4134 15.15823098658815
SAUDISAT 4              
1 40016U 14033G   26187.86648833  .00000518  00000+0  74953-4 0  9997
2 40016  97.7608 333.3232 0044974  11.2304 348.9901 14.79569263648989
APRIZESAT 9             
1 40018U 14033J   26187.34799703  .00000820  00000+0  12730-3 0  9995
2 40018  97.9084 320.0806 0067071 137.8663 222.7730 14.74244266646386
APRIZESAT 10            
1 40019U 14033K   26187.85455741  .00000548  00000+0  93672-4 0  9995
2 40019  97.9673 314.3779 0078086 210.1120 149.5586 14.70903821645140
TECHDEMOSAT-1 (TDS-1)   
1 40076U 14037H   26187.86101742  .00006279  00000+0  35390-3 0  9991
2 40076  98.3825 182.0280 0006149 185.5818 174.5343 15.13601687651200
TECHNOSAT               
1 42829U 17042E   26187.39733508  .00003419  00000+0  24381-3 0  9998
2 42829  97.4297 344.3272 0018163  32.0297 328.2030 15.05071587489594
FLYING LAPTOP           
1 42831U 17042G   26187.84871091  .00003610  00000+0  28409-3 0  9999
2 42831  97.4781 342.6366 0019970  58.8580 301.4600 15.01277851489402
HAWK-A                  
1 43765U 18099H   26187.70792580  .00005528  00000+0  22165-3 0  9992
2 43765  97.3900 239.6909 0033854 214.1845 145.7213 15.24890442416071
HAWK-B                  
1 43794U 18099AN  26187.68713352  .00005420  00000+0  23028-3 0  9991
2 43794  97.3947 239.0444 0030644 232.7871 127.0569 15.23050465416003
HAWK-C                  
1 43799U 18099AT  26187.64004273  .00006853  00000+0  24495-3 0  9997
2 43799  97.3876 240.6324 0039501 214.3918 145.4764 15.28398754416881
SALSAT                  
1 46495U 20068K   26187.57050323  .00006429  00000+0  22350-3 0  9998
2 46495  97.8859 191.8188 0008365 225.6933 134.3621 15.30088375318321
HAWK-2C                 
1 47502U 21006CT  26187.71178631  .00005457  00000+0  16330-3 0  9991
2 47502  97.2268 231.6334 0008424 125.3355 234.8678 15.34915757302491
HAWK-2A                 
1 47505U 21006CW  26187.64890071  .00005455  00000+0  16322-3 0  9994
2 47505  97.2308 232.2610 0007893 128.4326 231.7627 15.34929187302485
HAWK-2B                 
1 47508U 21006CZ  26187.70831551  .00006285  00000+0  18692-3 0  9996
2 47508  97.2178 230.6202 0008473 126.7999 233.4023 15.35052854302493
HAWK-3B                 
1 48931U 21059BE  26187.50439762  .00036099  00000+0  28563-3 0  9995
2 48931  97.6647  26.0618 0003758 231.7433 128.3491 15.71268243280888
HAWK-3C                 
1 48948U 21059BX  26187.56777301  .00034494  00000+0  27299-3 0  9995
2 48948  97.6770  31.8503 0004026 233.2972 126.7921 15.71270324280898
HAWK-3A                 
1 48957U 21059CG  26187.50397322  .00034361  00000+0  27204-3 0  9999
2 48957  97.6711  28.9694 0003944 235.8435 124.2453 15.71262129280887
HAWK-5C                 
1 52754U 22057Y   26187.39011117  .00017936  00000+0  29846-3 0  9993
2 52754  97.6617 348.3071 0003684  18.8355 341.3033 15.52101224229326
HAWK-5B                 
1 52756U 22057AA  26187.38992365  .00018330  00000+0  30488-3 0  9990
2 52756  97.6633 346.6586 0004253   7.0663 353.0648 15.52105754229327
